[{"OBJECT_NAME":"STARLINK-3943","OBJECT_ID":"2022-051AA","EPOCH":"2025-08-13T14:11:14.714592","MEAN_MOTION":15.08843603,"ECCENTRICITY":0.0001254,"INCLINATION":53.2177,"RA_OF_ASC_NODE":343.3131,"ARG_OF_PERICENTER":82.7631,"MEAN_ANOMALY":277.3504,"EPHEMERIS_TYPE":0,"CLASSIFICATION_TYPE":"U","NORAD_CAT_ID":52557,"ELEMENT_SET_NO":999,"REV_AT_EPOCH":18003,"BSTAR":0.00010053,"MEAN_MOTION_DOT":1.313e-5,"MEAN_MOTION_DDOT":0},{"OBJECT_NAME":"STARLINK-3953","OBJECT_ID":"2022-051AC","EPOCH":"2025-08-13T14:28:30.337824","MEAN_MOTION":15.08834339,"ECCENTRICITY":0.0001277,"INCLINATION":53.2193,"RA_OF_ASC_NODE":333.4419,"ARG_OF_PERICENTER":94.2195,"MEAN_ANOMALY":265.8943,"EPHEMERIS_TYPE":0,"CLASSIFICATION_TYPE":"U","NORAD_CAT_ID":52559,"ELEMENT_SET_NO":999,"REV_AT_EPOCH":18016,"BSTAR":-2.5283e-5,"MEAN_MOTION_DOT":-6.9e-6,"MEAN_MOTION_DDOT":0},{"OBJECT_NAME":"STARLINK-3956","OBJECT_ID":"2022-051AD","EPOCH":"2025-08-13T14:07:15.977568","MEAN_MOTION":15.08843283,"ECCENTRICITY":0.0001205,"INCLINATION":53.2193,"RA_OF_ASC_NODE":333.3264,"ARG_OF_PERICENTER":94.7822,"MEAN_ANOMALY":265.3308,"EPHEMERIS_TYPE":0,"CLASSIFICATION_TYPE":"U","NORAD_CAT_ID":52560,"ELEMENT_SET_NO":999,"REV_AT_EPOCH":18016,"BSTAR":1.8132e-6,"MEAN_MOTION_DOT":-2.59e-6,"MEAN_MOTION_DDOT":0},{"OBJECT_NAME":"STARLINK-3955","OBJECT_ID":"2022-051AE","EPOCH":"2025-08-13T13:41:26.150784","MEAN_MOTION":15.08847106,"ECCENTRICITY":9.75e-5,"INCLINATION":53.2184,"RA_OF_ASC_NODE":348.4045,"ARG_OF_PERICENTER":85.4649,"MEAN_ANOMALY":274.6455,"EPHEMERIS_TYPE":0,"CLASSIFICATION_TYPE":"U","NORAD_CAT_ID":52561,"ELEMENT_SET_NO":999,"REV_AT_EPOCH":17995,"BSTAR":-6.7373e-5,"MEAN_MOTION_DOT":-1.36e-5,"MEAN_MOTION_DDOT":0},{"OBJECT_NAME":"STARLINK-3957","OBJECT_ID":"2022-051AF","EPOCH":"2025-08-13T13:56:40.834752","MEAN_MOTION":15.08843477,"ECCENTRICITY":0.000122,"INCLINATION":53.2185,"RA_OF_ASC_NODE":333.3606,"ARG_OF_PERICENTER":88.6727,"MEAN_ANOMALY":271.4405,"EPHEMERIS_TYPE":0,"CLASSIFICATION_TYPE":"U","NORAD_CAT_ID":52562,"ELEMENT_SET_NO":999,"REV_AT_EPOCH":18016,"BSTAR":9.197e-5,"MEAN_MOTION_DOT":1.176e-5,"MEAN_MOTION_DDOT":0},{"OBJECT_NAME":"STARLINK-3942","OBJECT_ID":"2022-051AG","EPOCH":"2025-08-13T13:46:44.524416","MEAN_MOTION":15.08838729,"ECCENTRICITY":0.00011,"INCLINATION":53.2183,"RA_OF_ASC_NODE":348.3886,"ARG_OF_PERICENTER":88.1657,"MEAN_ANOMALY":271.9461,"EPHEMERIS_TYPE":0,"CLASSIFICATION_TYPE":"U","NORAD_CAT_ID":52563,"ELEMENT_SET_NO":999,"REV_AT_EPOCH":17995,"BSTAR":-5.6459e-5,"MEAN_MOTION_DOT":-1.186e-5,"MEAN_MOTION_DDOT":0},{"OBJECT_NAME":"STARLINK-3959","OBJECT_ID":"2022-051AH","EPOCH":"2025-08-13T13:37:31.361376","MEAN_MOTION":15.08843413,"ECCENTRICITY":0.0001234,"INCLINATION":53.2192,"RA_OF_ASC_NODE":348.4293,"ARG_OF_PERICENTER":84.9016,"MEAN_ANOMALY":275.2117,"EPHEMERIS_TYPE":0,"CLASSIFICATION_TYPE":"U","NORAD_CAT_ID":52564,"ELEMENT_SET_NO":999,"REV_AT_EPOCH":17995,"BSTAR":-5.6802e-5,"MEAN_MOTION_DOT":-1.192e-5,"MEAN_MOTION_DDOT":0},{"OBJECT_NAME":"STARLINK-3911","OBJECT_ID":"2022-051AJ","EPOCH":"2025-08-13T14:01:58.571616","MEAN_MOTION":15.08836306,"ECCENTRICITY":0.0001156,"INCLINATION":53.2198,"RA_OF_ASC_NODE":333.3452,"ARG_OF_PERICENTER":85.4826,"MEAN_ANOMALY":274.6298,"EPHEMERIS_TYPE":0,"CLASSIFICATION_TYPE":"U","NORAD_CAT_ID":52565,"ELEMENT_SET_NO":999,"REV_AT_EPOCH":18016,"BSTAR":-2.641e-5,"MEAN_MOTION_DOT":-7.08e-6,"MEAN_MOTION_DDOT":0},{"OBJECT_NAME":"STARLINK-3938","OBJECT_ID":"2022-051AK","EPOCH":"2025-08-13T14:39:43.549344","MEAN_MOTION":15.08841217,"ECCENTRICITY":0.0001295,"INCLINATION":53.2187,"RA_OF_ASC_NODE":348.2262,"ARG_OF_PERICENTER":81.5346,"MEAN_ANOMALY":278.5793,"EPHEMERIS_TYPE":0,"CLASSIFICATION_TYPE":"U","NORAD_CAT_ID":52566,"ELEMENT_SET_NO":999,"REV_AT_EPOCH":17996,"BSTAR":2.293e-5,"MEAN_MOTION_DOT":7.7e-7,"MEAN_MOTION_DDOT":0},{"OBJECT_NAME":"STARLINK-3929","OBJECT_ID":"2022-051AL","EPOCH":"2025-08-13T13:51:22.181184","MEAN_MOTION":15.08840413,"ECCENTRICITY":0.0001317,"INCLINATION":53.2195,"RA_OF_ASC_NODE":333.3774,"ARG_OF_PERICENTER":86.9551,"MEAN_ANOMALY":273.1592,"EPHEMERIS_TYPE":0,"CLASSIFICATION_TYPE":"U","NORAD_CAT_ID":52567,"ELEMENT_SET_NO":999,"REV_AT_EPOCH":18016,"BSTAR":4.6949e-6,"MEAN_MOTION_DOT":-2.13e-6,"MEAN_MOTION_DDOT":0},{"OBJECT_NAME":"STARLINK-3930","OBJECT_ID":"2022-051AM","EPOCH":"2025-08-13T13:35:28.742496","MEAN_MOTION":15.08840201,"ECCENTRICITY":0.000121,"INCLINATION":53.2182,"RA_OF_ASC_NODE":333.4252,"ARG_OF_PERICENTER":75.8171,"MEAN_ANOMALY":284.2956,"EPHEMERIS_TYPE":0,"CLASSIFICATION_TYPE":"U","NORAD_CAT_ID":52568,"ELEMENT_SET_NO":999,"REV_AT_EPOCH":18016,"BSTAR":5.8705e-5,"MEAN_MOTION_DOT":6.47e-6,"MEAN_MOTION_DDOT":0},{"OBJECT_NAME":"STARLINK-3927","OBJECT_ID":"2022-051AN","EPOCH":"2025-08-13T13:46:04.356192","MEAN_MOTION":15.0884355,"ECCENTRICITY":0.0001179,"INCLINATION":53.219,"RA_OF_ASC_NODE":333.393,"ARG_OF_PERICENTER":82.0649,"MEAN_ANOMALY":278.0477,"EPHEMERIS_TYPE":0,"CLASSIFICATION_TYPE":"U","NORAD_CAT_ID":52569,"ELEMENT_SET_NO":999,"REV_AT_EPOCH":18016,"BSTAR":8.6691e-5,"MEAN_MOTION_DOT":1.092e-5,"MEAN_MOTION_DDOT":0},{"OBJECT_NAME":"STARLINK-3901","OBJECT_ID":"2022-051AQ","EPOCH":"2025-08-13T13:40:48.580608","MEAN_MOTION":15.08826997,"ECCENTRICITY":0.0001357,"INCLINATION":53.2183,"RA_OF_ASC_NODE":333.4123,"ARG_OF_PERICENTER":96.4923,"MEAN_ANOMALY":263.6224,"EPHEMERIS_TYPE":0,"CLASSIFICATION_TYPE":"U","NORAD_CAT_ID":52574,"ELEMENT_SET_NO":999,"REV_AT_EPOCH":18016,"BSTAR":-1.7506e-5,"MEAN_MOTION_DOT":-5.66e-6,"MEAN_MOTION_DDOT":0},{"OBJECT_NAME":"STARLINK-3920","OBJECT_ID":"2022-051AR","EPOCH":"2025-08-13T14:00:01.999872","MEAN_MOTION":15.33144023,"ECCENTRICITY":0.000147,"INCLINATION":53.2178,"RA_OF_ASC_NODE":330.4434,"ARG_OF_PERICENTER":73.904,"MEAN_ANOMALY":119.9204,"EPHEMERIS_TYPE":0,"CLASSIFICATION_TYPE":"U","NORAD_CAT_ID":52575,"ELEMENT_SET_NO":999,"REV_AT_EPOCH":587,"BSTAR":0.0029382,"MEAN_MOTION_DOT":0.00096262,"MEAN_MOTION_DDOT":0},{"OBJECT_NAME":"STARLINK-3932","OBJECT_ID":"2022-051AS","EPOCH":"2025-08-13T13:15:39.665088","MEAN_MOTION":15.08839323,"ECCENTRICITY":0.0001075,"INCLINATION":53.2179,"RA_OF_ASC_NODE":333.4842,"ARG_OF_PERICENTER":85.8689,"MEAN_ANOMALY":274.2426,"EPHEMERIS_TYPE":0,"CLASSIFICATION_TYPE":"U","NORAD_CAT_ID":52576,"ELEMENT_SET_NO":999,"REV_AT_EPOCH":18016,"BSTAR":1.5674e-5,"MEAN_MOTION_DOT":-3.8e-7,"MEAN_MOTION_DDOT":0},{"OBJECT_NAME":"STARLINK-3836","OBJECT_ID":"2022-051AT","EPOCH":"2025-08-13T14:29:08.140416","MEAN_MOTION":15.08853224,"ECCENTRICITY":0.0001336,"INCLINATION":53.2174,"RA_OF_ASC_NODE":348.2579,"ARG_OF_PERICENTER":71.4257,"MEAN_ANOMALY":288.688,"EPHEMERIS_TYPE":0,"CLASSIFICATION_TYPE":"U","NORAD_CAT_ID":52577,"ELEMENT_SET_NO":999,"REV_AT_EPOCH":17996,"BSTAR":0.00034807,"MEAN_MOTION_DOT":5.258e-5,"MEAN_MOTION_DDOT":0},{"OBJECT_NAME":"STARLINK-3833","OBJECT_ID":"2022-051AU","EPOCH":"2025-08-13T14:34:25.949856","MEAN_MOTION":15.08842301,"ECCENTRICITY":0.0001223,"INCLINATION":53.2187,"RA_OF_ASC_NODE":348.2404,"ARG_OF_PERICENTER":84.5846,"MEAN_ANOMALY":275.5285,"EPHEMERIS_TYPE":0,"CLASSIFICATION_TYPE":"U","NORAD_CAT_ID":52578,"ELEMENT_SET_NO":999,"REV_AT_EPOCH":17996,"BSTAR":5.1561e-5,"MEAN_MOTION_DOT":5.33e-6,"MEAN_MOTION_DDOT":0}]
