STARLINK-3943           
1 52557U 22051AA  25225.59114253  .00001313  00000+0  10053-3 0  9999
2 52557  53.2177 343.3131 0001254  82.7631 277.3504 15.08843603180036
STARLINK-3953           
1 52559U 22051AC  25225.60312891 -.00000690  00000+0 -25283-4 0  9992
2 52559  53.2193 333.4419 0001277  94.2195 265.8943 15.08834339180162
STARLINK-3956           
1 52560U 22051AD  25225.58837937 -.00000259  00000+0  18132-5 0  9990
2 52560  53.2193 333.3264 0001205  94.7822 265.3308 15.08843283180162
STARLINK-3955           
1 52561U 22051AE  25225.57044156 -.00001360  00000+0 -67373-4 0  9998
2 52561  53.2184 348.4045 0000975  85.4649 274.6455 15.08847106179953
STARLINK-3957           
1 52562U 22051AF  25225.58102818  .00001176  00000+0  91970-4 0  9993
2 52562  53.2185 333.3606 0001220  88.6727 271.4405 15.08843477180169
STARLINK-3942           
1 52563U 22051AG  25225.57412644 -.00001186  00000+0 -56459-4 0  9990
2 52563  53.2183 348.3886 0001100  88.1657 271.9461 15.08838729179954
STARLINK-3959           
1 52564U 22051AH  25225.56772409 -.00001192  00000+0 -56802-4 0  9997
2 52564  53.2192 348.4293 0001234  84.9016 275.2117 15.08843413179950
STARLINK-3911           
1 52565U 22051AJ  25225.58470569 -.00000708  00000+0 -26410-4 0  9996
2 52565  53.2198 333.3452 0001156  85.4826 274.6298 15.08836306180166
STARLINK-3938           
1 52566U 22051AK  25225.61092071  .00000077  00000+0  22930-4 0  9999
2 52566  53.2187 348.2262 0001295  81.5346 278.5793 15.08841217179963
STARLINK-3929           
1 52567U 22051AL  25225.57734006 -.00000213  00000+0  46949-5 0  9996
2 52567  53.2195 333.3774 0001317  86.9551 273.1592 15.08840413180167
STARLINK-3930           
1 52568U 22051AM  25225.56630489  .00000647  00000+0  58705-4 0  9998
2 52568  53.2182 333.4252 0001210  75.8171 284.2956 15.08840201180165
STARLINK-3927           
1 52569U 22051AN  25225.57366153  .00001092  00000+0  86691-4 0  9994
2 52569  53.2190 333.3930 0001179  82.0649 278.0477 15.08843550180160
STARLINK-3901           
1 52574U 22051AQ  25225.57000672 -.00000566  00000+0 -17506-4 0  9997
2 52574  53.2183 333.4123 0001357  96.4923 263.6224 15.08826997180161
STARLINK-3920           
1 52575U 22051AR  25225.58335648  .00096262  00000+0  29382-2 0  9992
2 52575  53.2178 330.4434 0001470  73.9040 119.9204 15.33144023  5870
STARLINK-3932           
1 52576U 22051AS  25225.55254242 -.00000038  00000+0  15674-4 0  9998
2 52576  53.2179 333.4842 0001075  85.8689 274.2426 15.08839323180163
STARLINK-3836           
1 52577U 22051AT  25225.60356644  .00005258  00000+0  34807-3 0  9990
2 52577  53.2174 348.2579 0001336  71.4257 288.6880 15.08853224179967
STARLINK-3833           
1 52578U 22051AU  25225.60724479  .00000533  00000+0  51561-4 0  9994
2 52578  53.2187 348.2404 0001223  84.5846 275.5285 15.08842301179961
